STARLINK-36856          
1 67883U 26035E   26063.06789235 -.00214518  19214-4 -42141-3 0  9994
2 67883  97.2774 354.9638 0000596 163.7887 196.3411 16.00017285  2948
STARLINK-36842          
1 67884U 26035F   26063.06672297 -.00236309  22815-4 -45914-3 0  9998
2 67884  97.2768 354.9651 0001080 198.4087 161.7153 16.00216572  2942
STARLINK-36826          
1 67885U 26035G   26063.06628124 -.00240890  23624-4 -46611-3 0  9993
2 67885  97.2769 354.9661 0000210 132.9530 227.1766 16.00291911  2942
STARLINK-36390          
1 67886U 26035H   26063.06558983 -.00289297  32865-4 -55682-3 0  9998
2 67886  97.2764 354.9664 0001083 173.5678 186.5615 16.00395088  2945
STARLINK-36368          
1 67887U 26035J   26063.06493822 -.00310542  37443-4 -59443-3 0  9993
2 67887  97.2764 354.9671 0001154 186.8799 173.2464 16.00495587  2944
STARLINK-36801          
1 67888U 26035K   26063.06431115 -.00324940  40734-4 -61862-3 0  9993
2 67888  97.2763 354.9686 0000864 189.3554 170.7709 16.00594062  2946
STARLINK-36372          
1 67889U 26035L   26063.06311183 -.00326553  41195-4 -61529-3 0  9990
2 67889  97.2755 354.9695 0000972 186.9616 173.1650 16.00775484  2941
STARLINK-36363          
1 67890U 26035M   26063.06360339 -.00306551  36658-4 -57981-3 0  9990
2 67890  97.2759 354.9692 0000490 153.7515 206.3789 16.00705765  2946
STARLINK-36816          
1 67891U 26035N   26063.00001156 -.01077214  38484-3 -19029-2 0  9994
2 67891  97.2738 354.9215 0000871 112.9051 295.4692 16.02002044  2731
STARLINK-36813          
1 67892U 26035P   26063.12061433  .00007412  22812-5  14673-4 0  9994
2 67892  97.2740 355.0434 0000621  88.9217 271.2134 16.01542028  2956
STARLINK-36803          
1 67893U 26035Q   26063.06235847 -.00307110  36862-4 -57480-3 0  9991
2 67893  97.2757 354.9710 0000312 117.9304 242.2007 16.00889480  2948
STARLINK-36846          
1 67894U 26035R   26063.06081828 -.00348067  46503-4 -64435-3 0  9997
2 67894  97.2759 354.9733 0000644 183.8033 176.3241 16.01087752  2945
STARLINK-36866          
1 67895U 26035S   26063.06014483 -.00338278  44182-4 -62205-3 0  9998
2 67895  97.2759 354.9738 0000795 212.9588 147.1642 16.01202455  2947
STARLINK-36877          
1 67896U 26035T   26063.06155502 -.00331475  42455-4 -61674-3 0  9999
2 67896  97.2758 354.9717 0000595 186.2727 173.8545 16.00997081  2943
STARLINK-36870          
1 67897U 26035U   26063.05937317 -.00461478  78751-4 -84347-3 0  9998
2 67897  97.2752 354.9746 0001898 214.4248 145.6908 16.01323420  2940
STARLINK-36810          
1 67898U 26035V   26063.00001156 -.01086243  38748-3 -20037-2 0  9997
2 67898  97.2747 354.9109 0001066 117.1172 264.4431 16.01253037  2846
