[{"OBJECT_NAME":"STARLINK-36856","OBJECT_ID":"2026-035E","EPOCH":"2026-03-04T01:37:45.899040","MEAN_MOTION":16.00017285,"ECCENTRICITY":5.96e-5,"INCLINATION":97.2774,"RA_OF_ASC_NODE":354.9638,"ARG_OF_PERICENTER":163.7887,"MEAN_ANOMALY":196.3411,"EPHEMERIS_TYPE":0,"CLASSIFICATION_TYPE":"U","NORAD_CAT_ID":67883,"ELEMENT_SET_NO":999,"REV_AT_EPOCH":294,"BSTAR":-0.00042141,"MEAN_MOTION_DOT":-0.00214518,"MEAN_MOTION_DDOT":1.9214e-5},{"OBJECT_NAME":"STARLINK-36842","OBJECT_ID":"2026-035F","EPOCH":"2026-03-04T01:36:04.864608","MEAN_MOTION":16.00216572,"ECCENTRICITY":0.000108,"INCLINATION":97.2768,"RA_OF_ASC_NODE":354.9651,"ARG_OF_PERICENTER":198.4087,"MEAN_ANOMALY":161.7153,"EPHEMERIS_TYPE":0,"CLASSIFICATION_TYPE":"U","NORAD_CAT_ID":67884,"ELEMENT_SET_NO":999,"REV_AT_EPOCH":294,"BSTAR":-0.00045914,"MEAN_MOTION_DOT":-0.00236309,"MEAN_MOTION_DDOT":2.2815e-5},{"OBJECT_NAME":"STARLINK-36826","OBJECT_ID":"2026-035G","EPOCH":"2026-03-04T01:35:26.699136","MEAN_MOTION":16.00291911,"ECCENTRICITY":2.1e-5,"INCLINATION":97.2769,"RA_OF_ASC_NODE":354.9661,"ARG_OF_PERICENTER":132.953,"MEAN_ANOMALY":227.1766,"EPHEMERIS_TYPE":0,"CLASSIFICATION_TYPE":"U","NORAD_CAT_ID":67885,"ELEMENT_SET_NO":999,"REV_AT_EPOCH":294,"BSTAR":-0.00046611,"MEAN_MOTION_DOT":-0.0024089,"MEAN_MOTION_DDOT":2.3624e-5},{"OBJECT_NAME":"STARLINK-36390","OBJECT_ID":"2026-035H","EPOCH":"2026-03-04T01:34:26.961312","MEAN_MOTION":16.00395088,"ECCENTRICITY":0.0001083,"INCLINATION":97.2764,"RA_OF_ASC_NODE":354.9664,"ARG_OF_PERICENTER":173.5678,"MEAN_ANOMALY":186.5615,"EPHEMERIS_TYPE":0,"CLASSIFICATION_TYPE":"U","NORAD_CAT_ID":67886,"ELEMENT_SET_NO":999,"REV_AT_EPOCH":294,"BSTAR":-0.00055682,"MEAN_MOTION_DOT":-0.00289297,"MEAN_MOTION_DDOT":3.2865e-5},{"OBJECT_NAME":"STARLINK-36368","OBJECT_ID":"2026-035J","EPOCH":"2026-03-04T01:33:30.662208","MEAN_MOTION":16.00495587,"ECCENTRICITY":0.0001154,"INCLINATION":97.2764,"RA_OF_ASC_NODE":354.9671,"ARG_OF_PERICENTER":186.8799,"MEAN_ANOMALY":173.2464,"EPHEMERIS_TYPE":0,"CLASSIFICATION_TYPE":"U","NORAD_CAT_ID":67887,"ELEMENT_SET_NO":999,"REV_AT_EPOCH":294,"BSTAR":-0.00059443,"MEAN_MOTION_DOT":-0.00310542,"MEAN_MOTION_DDOT":3.7443e-5},{"OBJECT_NAME":"STARLINK-36801","OBJECT_ID":"2026-035K","EPOCH":"2026-03-04T01:32:36.483360","MEAN_MOTION":16.00594062,"ECCENTRICITY":8.64e-5,"INCLINATION":97.2763,"RA_OF_ASC_NODE":354.9686,"ARG_OF_PERICENTER":189.3554,"MEAN_ANOMALY":170.7709,"EPHEMERIS_TYPE":0,"CLASSIFICATION_TYPE":"U","NORAD_CAT_ID":67888,"ELEMENT_SET_NO":999,"REV_AT_EPOCH":294,"BSTAR":-0.00061862,"MEAN_MOTION_DOT":-0.0032494,"MEAN_MOTION_DDOT":4.0734e-5},{"OBJECT_NAME":"STARLINK-36372","OBJECT_ID":"2026-035L","EPOCH":"2026-03-04T01:30:52.862112","MEAN_MOTION":16.00775484,"ECCENTRICITY":9.72e-5,"INCLINATION":97.2755,"RA_OF_ASC_NODE":354.9695,"ARG_OF_PERICENTER":186.9616,"MEAN_ANOMALY":173.165,"EPHEMERIS_TYPE":0,"CLASSIFICATION_TYPE":"U","NORAD_CAT_ID":67889,"ELEMENT_SET_NO":999,"REV_AT_EPOCH":294,"BSTAR":-0.00061529,"MEAN_MOTION_DOT":-0.00326553,"MEAN_MOTION_DDOT":4.1195e-5},{"OBJECT_NAME":"STARLINK-36363","OBJECT_ID":"2026-035M","EPOCH":"2026-03-04T01:31:35.332896","MEAN_MOTION":16.00705765,"ECCENTRICITY":4.9e-5,"INCLINATION":97.2759,"RA_OF_ASC_NODE":354.9692,"ARG_OF_PERICENTER":153.7515,"MEAN_ANOMALY":206.3789,"EPHEMERIS_TYPE":0,"CLASSIFICATION_TYPE":"U","NORAD_CAT_ID":67890,"ELEMENT_SET_NO":999,"REV_AT_EPOCH":294,"BSTAR":-0.00057981,"MEAN_MOTION_DOT":-0.00306551,"MEAN_MOTION_DDOT":3.6658e-5},{"OBJECT_NAME":"STARLINK-36816","OBJECT_ID":"2026-035N","EPOCH":"2026-03-04T00:00:00.998784","MEAN_MOTION":16.02002044,"ECCENTRICITY":8.71e-5,"INCLINATION":97.2738,"RA_OF_ASC_NODE":354.9215,"ARG_OF_PERICENTER":112.9051,"MEAN_ANOMALY":295.4692,"EPHEMERIS_TYPE":0,"CLASSIFICATION_TYPE":"U","NORAD_CAT_ID":67891,"ELEMENT_SET_NO":999,"REV_AT_EPOCH":273,"BSTAR":-0.0019029,"MEAN_MOTION_DOT":-0.01077214,"MEAN_MOTION_DDOT":0.00038484},{"OBJECT_NAME":"STARLINK-36813","OBJECT_ID":"2026-035P","EPOCH":"2026-03-04T02:53:41.078112","MEAN_MOTION":16.01542028,"ECCENTRICITY":6.21e-5,"INCLINATION":97.274,"RA_OF_ASC_NODE":355.0434,"ARG_OF_PERICENTER":88.9217,"MEAN_ANOMALY":271.2134,"EPHEMERIS_TYPE":0,"CLASSIFICATION_TYPE":"U","NORAD_CAT_ID":67892,"ELEMENT_SET_NO":999,"REV_AT_EPOCH":295,"BSTAR":1.4673e-5,"MEAN_MOTION_DOT":7.412e-5,"MEAN_MOTION_DDOT":2.2812e-6},{"OBJECT_NAME":"STARLINK-36803","OBJECT_ID":"2026-035Q","EPOCH":"2026-03-04T01:29:47.771808","MEAN_MOTION":16.0088948,"ECCENTRICITY":3.12e-5,"INCLINATION":97.2757,"RA_OF_ASC_NODE":354.971,"ARG_OF_PERICENTER":117.9304,"MEAN_ANOMALY":242.2007,"EPHEMERIS_TYPE":0,"CLASSIFICATION_TYPE":"U","NORAD_CAT_ID":67893,"ELEMENT_SET_NO":999,"REV_AT_EPOCH":294,"BSTAR":-0.0005748,"MEAN_MOTION_DOT":-0.0030711,"MEAN_MOTION_DDOT":3.6862e-5},{"OBJECT_NAME":"STARLINK-36846","OBJECT_ID":"2026-035R","EPOCH":"2026-03-04T01:27:34.699392","MEAN_MOTION":16.01087752,"ECCENTRICITY":6.44e-5,"INCLINATION":97.2759,"RA_OF_ASC_NODE":354.9733,"ARG_OF_PERICENTER":183.8033,"MEAN_ANOMALY":176.3241,"EPHEMERIS_TYPE":0,"CLASSIFICATION_TYPE":"U","NORAD_CAT_ID":67894,"ELEMENT_SET_NO":999,"REV_AT_EPOCH":294,"BSTAR":-0.00064435,"MEAN_MOTION_DOT":-0.00348067,"MEAN_MOTION_DDOT":4.6503e-5},{"OBJECT_NAME":"STARLINK-36866","OBJECT_ID":"2026-035S","EPOCH":"2026-03-04T01:26:36.513312","MEAN_MOTION":16.01202455,"ECCENTRICITY":7.95e-5,"INCLINATION":97.2759,"RA_OF_ASC_NODE":354.9738,"ARG_OF_PERICENTER":212.9588,"MEAN_ANOMALY":147.1642,"EPHEMERIS_TYPE":0,"CLASSIFICATION_TYPE":"U","NORAD_CAT_ID":67895,"ELEMENT_SET_NO":999,"REV_AT_EPOCH":294,"BSTAR":-0.00062205,"MEAN_MOTION_DOT":-0.00338278,"MEAN_MOTION_DDOT":4.4182e-5},{"OBJECT_NAME":"STARLINK-36877","OBJECT_ID":"2026-035T","EPOCH":"2026-03-04T01:28:38.353728","MEAN_MOTION":16.00997081,"ECCENTRICITY":5.95e-5,"INCLINATION":97.2758,"RA_OF_ASC_NODE":354.9717,"ARG_OF_PERICENTER":186.2727,"MEAN_ANOMALY":173.8545,"EPHEMERIS_TYPE":0,"CLASSIFICATION_TYPE":"U","NORAD_CAT_ID":67896,"ELEMENT_SET_NO":999,"REV_AT_EPOCH":294,"BSTAR":-0.00061674,"MEAN_MOTION_DOT":-0.00331475,"MEAN_MOTION_DDOT":4.2455e-5},{"OBJECT_NAME":"STARLINK-36870","OBJECT_ID":"2026-035U","EPOCH":"2026-03-04T01:25:29.841888","MEAN_MOTION":16.0132342,"ECCENTRICITY":0.0001898,"INCLINATION":97.2752,"RA_OF_ASC_NODE":354.9746,"ARG_OF_PERICENTER":214.4248,"MEAN_ANOMALY":145.6908,"EPHEMERIS_TYPE":0,"CLASSIFICATION_TYPE":"U","NORAD_CAT_ID":67897,"ELEMENT_SET_NO":999,"REV_AT_EPOCH":294,"BSTAR":-0.00084347,"MEAN_MOTION_DOT":-0.00461478,"MEAN_MOTION_DDOT":7.8751e-5},{"OBJECT_NAME":"STARLINK-36810","OBJECT_ID":"2026-035V","EPOCH":"2026-03-04T00:00:00.998784","MEAN_MOTION":16.01253037,"ECCENTRICITY":0.0001066,"INCLINATION":97.2747,"RA_OF_ASC_NODE":354.9109,"ARG_OF_PERICENTER":117.1172,"MEAN_ANOMALY":264.4431,"EPHEMERIS_TYPE":0,"CLASSIFICATION_TYPE":"U","NORAD_CAT_ID":67898,"ELEMENT_SET_NO":999,"REV_AT_EPOCH":284,"BSTAR":-0.0020037,"MEAN_MOTION_DOT":-0.01086243,"MEAN_MOTION_DDOT":0.00038748}]
